Satellite: GO-32
Catalog number: 25397
Epoch time:      10266.52826931
Element set:     290
Inclination:      098.3165 deg
RA of node:       268.5781 deg
Eccentricity:    0.0001331
Arg of perigee:   022.4119 deg
Mean anomaly:     337.7103 deg
Mean motion:   14.23185606 rev/day
Decay rate:        1.7e-07 rev/day^2
Epoch rev:           63403
Checksum:              284

Satellite: NO-44
Catalog number: 26931
Epoch time:      10265.65865937
Element set:     564
Inclination:      067.0533 deg
RA of node:       312.8443 deg
Eccentricity:    0.0005364
Arg of perigee:   272.2035 deg
Mean anomaly:     087.8482 deg
Mean motion:   14.29610807 rev/day
Decay rate:       -2.5e-07 rev/day^2
Epoch rev:           46868
Checksum:              321

Satellite: SO-50
Catalog number: 27607
Epoch time:      10265.66498712
Element set:    0276
Inclination:      064.5565 deg
RA of node:       060.4325 deg
Eccentricity:    0.0041204
Arg of perigee:   034.9990 deg
Mean anomaly:     325.3782 deg
Mean motion:   14.71578470 rev/day
Decay rate:       1.36e-06 rev/day^2
Epoch rev:           41672
Checksum:              309

Satellite: CO-55
Catalog number: 27844
Epoch time:      10266.55129911
Element set:     942
Inclination:      098.7116 deg
RA of node:       274.1231 deg
Eccentricity:    0.0008939
Arg of perigee:   248.0949 deg
Mean anomaly:     111.9297 deg
Mean motion:   14.20731454 rev/day
Decay rate:        9.6e-07 rev/day^2
Epoch rev:           37505
Checksum:              322

Satellite: CO-57
Catalog number: 27848
Epoch time:      10265.53875341
Element set:    0889
Inclination:      098.7163 deg
RA of node:       272.2380 deg
Eccentricity:    0.0008907
Arg of perigee:   254.3899 deg
Mean anomaly:     105.6294 deg
Mean motion:   14.20521843 rev/day
Decay rate:        6.6e-07 rev/day^2
Epoch rev:           37486
Checksum:              346

Satellite: AO-51
Catalog number: 28375
Epoch time:      10266.42290431
Element set:     781
Inclination:      098.0707 deg
RA of node:       254.3701 deg
Eccentricity:    0.0083638
Arg of perigee:   158.5192 deg
Mean anomaly:     201.9548 deg
Mean motion:   14.40699590 rev/day
Decay rate:        2.6e-07 rev/day^2
Epoch rev:           32765
Checksum:              317

Satellite: GENESAT1
Catalog number: 29655
Epoch time:      10216.61700559
Element set:     226
Inclination:      040.0059 deg
RA of node:       067.3006 deg
Eccentricity:    0.0005079
Arg of perigee:   297.8744 deg
Mean anomaly:     064.7087 deg
Mean motion:   16.44862838 rev/day
Decay rate:  1.0637092e-01 rev/day^2
Epoch rev:           20777
Checksum:              320

Satellite: CP3
Catalog number: 31129
Epoch time:      10265.63708848
Element set:    0683
Inclination:      097.9313 deg
RA of node:       299.9526 deg
Eccentricity:    0.0101293
Arg of perigee:   292.0237 deg
Mean anomaly:     067.0215 deg
Mean motion:   14.52304546 rev/day
Decay rate:       -6.7e-07 rev/day^2
Epoch rev:           18200
Checksum:              299

Satellite: CO-65
Catalog number: 32785
Epoch time:      10266.69326069
Element set:     791
Inclination:      097.8869 deg
RA of node:       330.2074 deg
Eccentricity:    0.0014658
Arg of perigee:   329.0234 deg
Mean anomaly:     031.0096 deg
Mean motion:   14.81720875 rev/day
Decay rate:       4.79e-06 rev/day^2
Epoch rev:           13007
Checksum:              325

Satellite: KKS-1
Catalog number: 33493
Epoch time:      10266.82494025
Element set:     880
Inclination:      098.0962 deg
RA of node:       027.2214 deg
Eccentricity:    0.0019945
Arg of perigee:   178.8034 deg
Mean anomaly:     181.3231 deg
Mean motion:   14.81109838 rev/day
Decay rate:       7.21e-06 rev/day^2
Epoch rev:            9008
Checksum:              298

Satellite: SOHLA-1
Catalog number: 33496
Epoch time:      10266.75654560
Element set:     211
Inclination:      098.0645 deg
RA of node:       014.5886 deg
Eccentricity:    0.0005560
Arg of perigee:   247.9763 deg
Mean anomaly:     112.0890 deg
Mean motion:   14.69517116 rev/day
Decay rate:        8.4e-07 rev/day^2
Epoch rev:            8935
Checksum:              311

Satellite: TISAT-1
Catalog number: 36799
Epoch time:      10266.82046842
Element set:     152
Inclination:      098.1389 deg
RA of node:       327.0126 deg
Eccentricity:    0.0016557
Arg of perigee:   059.5844 deg
Mean anomaly:     300.6980 deg
Mean motion:   14.80173312 rev/day
Decay rate:       4.31e-06 rev/day^2
Epoch rev:            1090
Checksum:              294

Satellite: STUDSAT
Catalog number: 36801
Epoch time:      10265.76603852
Element set:    0075
Inclination:      098.1412 deg
RA of node:       325.8754 deg
Eccentricity:    0.0015120
Arg of perigee:   050.5372 deg
Mean anomaly:     309.7172 deg
Mean motion:   14.79658082 rev/day
Decay rate:      1.074e-05 rev/day^2
Epoch rev:           01074
Checksum:              282

/EX
SB KEPS @ AMSAT  $ORB10266.W
Orbital Elements  10266.WEATHER

HR AMSAT ORBITAL ELEMENTS FOR WEATHER SATELLITES
FROM WA5QGD FORT WORTH,TX September 23, 2010
Send Subscribe/unsubscribe to KEPS at
http://www.amsat.org/mailman/listinfo/keps
BID: ORB10266.W
TO ALL RADIO AMATEURS BT

Satellite: NOAA-10
Catalog number: 16969
Epoch time:      10266.14738576
Element set:     212
Inclination:      098.6501 deg
RA of node:       294.1663 deg
Eccentricity:    0.0011536
Arg of perigee:   287.8038 deg
Mean anomaly:     072.1872 deg
Mean motion:   14.27427141 rev/day
Decay rate:       -6.1e-07 rev/day^2
Epoch rev:           24955
Checksum:              309

Satellite: NOAA-11
Catalog number: 19531
Epoch time:      10266.32109722
Element set:     222
Inclination:      098.7674 deg
RA of node:       353.6646 deg
Eccentricity:    0.0010773
Arg of perigee:   226.7122 deg
Mean anomaly:     133.3169 deg
Mean motion:   14.14934747 rev/day
Decay rate:      -1.86e-06 rev/day^2
Epoch rev:           13501
Checksum:              288

Satellite: NOAA-12
Catalog number: 21263
Epoch time:      10266.74801863
Element set:     716
Inclination:      098.7654 deg
RA of node:       279.8966 deg
Eccentricity:    0.0011673
Arg of perigee:   238.8810 deg
Mean anomaly:     121.1704 deg
Mean motion:   14.25655199 rev/day
Decay rate:        9.7e-07 rev/day^2
Epoch rev:             649
Checksum:              326

Satellite: MET-3/5
Catalog number: 21655
Epoch time:      10266.71181367
Element set:     921
Inclination:      082.5534 deg
RA of node:       239.0143 deg
Eccentricity:    0.0014904
Arg of perigee:   101.2668 deg
Mean anomaly:     259.0089 deg
Mean motion:   13.17026021 rev/day
Decay rate:        5.1e-07 rev/day^2
Epoch rev:           91864
Checksum:              280

Satellite: MET-2/21
Catalog number: 22782
Epoch time:      10265.48093073
Element set:    0891
Inclination:      082.5501 deg
RA of node:       175.2614 deg
Eccentricity:    0.0023459
Arg of perigee:   126.9256 deg
Mean anomaly:     233.4052 deg
Mean motion:   13.83649921 rev/day
Decay rate:        6.8e-07 rev/day^2
Epoch rev:           86153
Checksum:              306

Satellite: OKEAN-4
Catalog number: 23317
Epoch time:      10266.63947293
Element set:     347
Inclination:      082.5368 deg
RA of node:       261.9599 deg
Eccentricity:    0.0020314
Arg of perigee:   278.7766 deg
Mean anomaly:     081.1158 deg
Mean motion:   14.82863675 rev/day
Decay rate:       4.27e-06 rev/day^2
Epoch rev:           86104
Checksum:              334

Satellite: NOAA-14
Catalog number: 23455
Epoch time:      10266.79715919
Element set:     205
Inclination:      098.8721 deg
RA of node:       346.8251 deg
Eccentricity:    0.0008927
Arg of perigee:   320.3691 deg
Mean anomaly:     039.7314 deg
Mean motion:   14.13794277 rev/day
Decay rate:       -2.0e-08 rev/day^2
Epoch rev:           81152
Checksum:              312

Satellite: NOAA-15
Catalog number: 25338
Epoch time:      10266.81711799
Element set:     530
Inclination:      098.6297 deg
RA of node:       252.0226 deg
Eccentricity:    0.0011151
Arg of perigee:   143.4271 deg
Mean anomaly:     216.8146 deg
Mean motion:   14.24855774 rev/day
Decay rate:        8.7e-07 rev/day^2
Epoch rev:           64280
Checksum:              305

Satellite: RESURS
Catalog number: 25394
Epoch time:      10266.56395337
Element set:     610
Inclination:      098.3044 deg
RA of node:       279.2850 deg
Eccentricity:    0.0001063
Arg of perigee:   341.7576 deg
Mean anomaly:     018.3569 deg
Mean motion:   14.24209968 rev/day
Decay rate:        8.0e-08 rev/day^2
Epoch rev:           63435
Checksum:              307

Satellite: FENGYUN1
Catalog number: 25730
Epoch time:      10265.85783920
Element set:    0144
Inclination:      098.7933 deg
RA of node:       228.2980 deg
Eccentricity:    0.0022390
Arg of perigee:   352.2100 deg
Mean anomaly:     007.8691 deg
Mean motion:   14.08294241 rev/day
Decay rate:       7.63e-06 rev/day^2
Epoch rev:           58543
Checksum:              298

Satellite: OKEAN-0
Catalog number: 25860
Epoch time:      10266.53127760
Element set:     106
Inclination:      097.8452 deg
RA of node:       235.9515 deg
Eccentricity:    0.0001778
Arg of perigee:   094.9426 deg
Mean anomaly:     265.1985 deg
Mean motion:   14.73664310 rev/day
Decay rate:       1.18e-06 rev/day^2
Epoch rev:           60138
Checksum:              305

